[{"OBJECT_NAME":"SCS-01 M","OBJECT_ID":"2025-100M","EPOCH":"2026-03-09T23:50:15.541152","MEAN_MOTION":15.31880861,"ECCENTRICITY":0.00078021,"INCLINATION":97.3725,"RA_OF_ASC_NODE":145.6908,"ARG_OF_PERICENTER":292.3826,"MEAN_ANOMALY":67.6588,"EPHEMERIS_TYPE":0,"CLASSIFICATION_TYPE":"U","NORAD_CAT_ID":63993,"ELEMENT_SET_NO":999,"REV_AT_EPOCH":4565,"BSTAR":0.0012010051,"MEAN_MOTION_DOT":0.00037061,"MEAN_MOTION_DDOT":0},{"OBJECT_NAME":"STARLINK-34921","OBJECT_ID":"2025-224M","EPOCH":"2026-03-09T05:55:00.064128","MEAN_MOTION":15.30189284,"ECCENTRICITY":0.00011851,"INCLINATION":53.162,"RA_OF_ASC_NODE":13.6012,"ARG_OF_PERICENTER":69.962,"MEAN_ANOMALY":290.1508,"EPHEMERIS_TYPE":0,"CLASSIFICATION_TYPE":"U","NORAD_CAT_ID":65893,"ELEMENT_SET_NO":999,"REV_AT_EPOCH":2480,"BSTAR":0.0013171961,"MEAN_MOTION_DOT":0.00038843,"MEAN_MOTION_DDOT":0}]
